CCSDS_OMM_VERS = 2.0
CREATION_DATE  = 
ORIGINATOR     = 

OBJECT_NAME    = STARLINK-35366
OBJECT_ID      = 2025-263AD
CENTER_NAME    = EARTH
REF_FRAME      = TEME
TIME_SYSTEM    = UTC
MEAN_ELEMENT_THEORY = SGP/SGP4

EPOCH          = 2025-11-21T16:00:05.000256
MEAN_MOTION    = 16.03542628
ECCENTRICITY   = .0002095
INCLINATION    = 43.0005
RA_OF_ASC_NODE = 252.4952
ARG_OF_PERICENTER = 258.1982
MEAN_ANOMALY   = 118.8515

EPHEMERIS_TYPE = 0
CLASSIFICATION_TYPE = U
NORAD_CAT_ID   = 66512
ELEMENT_SET_NO = 999
REV_AT_EPOCH   = 224
BSTAR          = -.17213E-2
MEAN_MOTION_DOT = -.1129049E-1
MEAN_MOTION_DDOT = .42552E-3

CCSDS_OMM_VERS = 2.0
CREATION_DATE  = 
ORIGINATOR     = 

OBJECT_NAME    = STARLINK-35692
OBJECT_ID      = 2025-263AE
CENTER_NAME    = EARTH
REF_FRAME      = TEME
TIME_SYSTEM    = UTC
MEAN_ELEMENT_THEORY = SGP/SGP4

EPOCH          = 2025-11-21T16:00:05.000256
MEAN_MOTION    = 16.03188374
ECCENTRICITY   = .0002111
INCLINATION    = 43.0008
RA_OF_ASC_NODE = 252.5084
ARG_OF_PERICENTER = 259.9229
MEAN_ANOMALY   = 111.9650

EPHEMERIS_TYPE = 0
CLASSIFICATION_TYPE = U
NORAD_CAT_ID   = 66513
ELEMENT_SET_NO = 999
REV_AT_EPOCH   = 224
BSTAR          = -.17651E-2
MEAN_MOTION_DOT = -.113341E-1
MEAN_MOTION_DDOT = .42682E-3

CCSDS_OMM_VERS = 2.0
CREATION_DATE  = 
ORIGINATOR     = 

OBJECT_NAME    = SENTINEL-6B
OBJECT_ID      = 2025-264A
CENTER_NAME    = EARTH
REF_FRAME      = TEME
TIME_SYSTEM    = UTC
MEAN_ELEMENT_THEORY = SGP/SGP4

EPOCH          = 2025-11-23T02:27:52.005600
MEAN_MOTION    = 12.85877842
ECCENTRICITY   = .00115387
INCLINATION    = 66.0400
RA_OF_ASC_NODE = 203.5092
ARG_OF_PERICENTER = 270.5110
MEAN_ANOMALY   = 89.4586

EPHEMERIS_TYPE = 0
CLASSIFICATION_TYPE = U
NORAD_CAT_ID   = 66514
ELEMENT_SET_NO = 999
REV_AT_EPOCH   = 76
BSTAR          = .39627963E-2
MEAN_MOTION_DOT = .916E-5
MEAN_MOTION_DDOT = 0

CCSDS_OMM_VERS = 2.0
CREATION_DATE  = 
ORIGINATOR     = 

OBJECT_NAME    = SZ-21 MODULE
OBJECT_ID      = 2025-246C
CENTER_NAME    = EARTH
REF_FRAME      = TEME
TIME_SYSTEM    = UTC
MEAN_ELEMENT_THEORY = SGP/SGP4

EPOCH          = 2025-11-23T22:21:11.047104
MEAN_MOTION    = 15.61215711
ECCENTRICITY   = .0004663
INCLINATION    = 41.4753
RA_OF_ASC_NODE = 130.6686
ARG_OF_PERICENTER = 134.1309
MEAN_ANOMALY   = 225.9914

EPHEMERIS_TYPE = 0
CLASSIFICATION_TYPE = U
NORAD_CAT_ID   = 66515
ELEMENT_SET_NO = 999
REV_AT_EPOCH   = 150
BSTAR          = .33497E-3
MEAN_MOTION_DOT = .28971E-3
MEAN_MOTION_DDOT = 0

CCSDS_OMM_VERS = 2.0
CREATION_DATE  = 
ORIGINATOR     = 

OBJECT_NAME    = SHIJIAN-30A
OBJECT_ID      = 2025-266A
CENTER_NAME    = EARTH
REF_FRAME      = TEME
TIME_SYSTEM    = UTC
MEAN_ELEMENT_THEORY = SGP/SGP4

EPOCH          = 2025-11-23T21:30:25.224192
MEAN_MOTION    = 15.15666526
ECCENTRICITY   = .0012865
INCLINATION    = 51.7997
RA_OF_ASC_NODE = 61.1203
ARG_OF_PERICENTER = 289.3668
MEAN_ANOMALY   = 70.5918

EPHEMERIS_TYPE = 0
CLASSIFICATION_TYPE = U
NORAD_CAT_ID   = 66545
ELEMENT_SET_NO = 999
REV_AT_EPOCH   = 72
BSTAR          = .60105E-3
MEAN_MOTION_DOT = .11309E-3
MEAN_MOTION_DDOT = 0

CCSDS_OMM_VERS = 2.0
CREATION_DATE  = 
ORIGINATOR     = 

OBJECT_NAME    = SHIJIAN-30B
OBJECT_ID      = 2025-266B
CENTER_NAME    = EARTH
REF_FRAME      = TEME
TIME_SYSTEM    = UTC
MEAN_ELEMENT_THEORY = SGP/SGP4

EPOCH          = 2025-11-23T18:21:35.472096
MEAN_MOTION    = 15.15426505
ECCENTRICITY   = .0010533
INCLINATION    = 51.7979
RA_OF_ASC_NODE = 61.7429
ARG_OF_PERICENTER = 288.2508
MEAN_ANOMALY   = 71.7322

EPHEMERIS_TYPE = 0
CLASSIFICATION_TYPE = U
NORAD_CAT_ID   = 66546
ELEMENT_SET_NO = 999
REV_AT_EPOCH   = 70
BSTAR          = .59652E-3
MEAN_MOTION_DOT = .11137E-3
MEAN_MOTION_DDOT = 0

CCSDS_OMM_VERS = 2.0
CREATION_DATE  = 
ORIGINATOR     = 

OBJECT_NAME    = SHIJIAN-30C
OBJECT_ID      = 2025-266C
CENTER_NAME    = EARTH
REF_FRAME      = TEME
TIME_SYSTEM    = UTC
MEAN_ELEMENT_THEORY = SGP/SGP4

EPOCH          = 2025-11-23T18:22:38.587296
MEAN_MOTION    = 15.15174469
ECCENTRICITY   = .0011304
INCLINATION    = 51.7989
RA_OF_ASC_NODE = 61.7477
ARG_OF_PERICENTER = 281.2558
MEAN_ANOMALY   = 78.7148

EPHEMERIS_TYPE = 0
CLASSIFICATION_TYPE = U
NORAD_CAT_ID   = 66547
ELEMENT_SET_NO = 999
REV_AT_EPOCH   = 70
BSTAR          = .49127E-3
MEAN_MOTION_DOT = .9049E-4
MEAN_MOTION_DDOT = 0

CCSDS_OMM_VERS = 2.0
CREATION_DATE  = 
ORIGINATOR     = 

OBJECT_NAME    = CZ-2C R/B
OBJECT_ID      = 2025-266D
CENTER_NAME    = EARTH
REF_FRAME      = TEME
TIME_SYSTEM    = UTC
MEAN_ELEMENT_THEORY = SGP/SGP4

EPOCH          = 2025-11-23T12:38:59.460576
MEAN_MOTION    = 15.29574159
ECCENTRICITY   = .0085341
INCLINATION    = 52.0566
RA_OF_ASC_NODE = 62.7697
ARG_OF_PERICENTER = 107.5453
MEAN_ANOMALY   = 253.4879

EPHEMERIS_TYPE = 0
CLASSIFICATION_TYPE = U
NORAD_CAT_ID   = 66548
ELEMENT_SET_NO = 999
REV_AT_EPOCH   = 67
BSTAR          = .38366E-3
MEAN_MOTION_DOT = .12075E-3
MEAN_MOTION_DDOT = 0

CCSDS_OMM_VERS = 2.0
CREATION_DATE  = 
ORIGINATOR     = 

OBJECT_NAME    = GLOBAL-33
OBJECT_ID      = 2025-267A
CENTER_NAME    = EARTH
REF_FRAME      = TEME
TIME_SYSTEM    = UTC
MEAN_ELEMENT_THEORY = SGP/SGP4

EPOCH          = 2025-11-21T14:18:25.536096
MEAN_MOTION    = 15.30949686
ECCENTRICITY   = .00067503
INCLINATION    = 42.0189
RA_OF_ASC_NODE = 178.9818
ARG_OF_PERICENTER = 273.7217
MEAN_ANOMALY   = 86.2848

EPHEMERIS_TYPE = 0
CLASSIFICATION_TYPE = U
NORAD_CAT_ID   = 66554
ELEMENT_SET_NO = 999
REV_AT_EPOCH   = 16
BSTAR          = .1251568E-3
MEAN_MOTION_DOT = .3575E-4
MEAN_MOTION_DDOT = 0

CCSDS_OMM_VERS = 2.0
CREATION_DATE  = 
ORIGINATOR     = 

OBJECT_NAME    = ELECTRON KICK STAGE R/B
OBJECT_ID      = 2025-267B
CENTER_NAME    = EARTH
REF_FRAME      = TEME
TIME_SYSTEM    = UTC
MEAN_ELEMENT_THEORY = SGP/SGP4

EPOCH          = 2025-11-21T14:17:54.584160
MEAN_MOTION    = 15.31490022
ECCENTRICITY   = .00088269
INCLINATION    = 42.0193
RA_OF_ASC_NODE = 178.9984
ARG_OF_PERICENTER = 283.6443
MEAN_ANOMALY   = 76.3411

EPHEMERIS_TYPE = 0
CLASSIFICATION_TYPE = U
NORAD_CAT_ID   = 66555
ELEMENT_SET_NO = 999
REV_AT_EPOCH   = 16
BSTAR          = .12531062E-3
MEAN_MOTION_DOT = .3645E-4
MEAN_MOTION_DDOT = 0

CCSDS_OMM_VERS = 2.0
CREATION_DATE  = 
ORIGINATOR     = 

OBJECT_NAME    = ELECTRON R/B
OBJECT_ID      = 2025-267C
CENTER_NAME    = EARTH
REF_FRAME      = TEME
TIME_SYSTEM    = UTC
MEAN_ELEMENT_THEORY = SGP/SGP4

EPOCH          = 2025-11-21T16:32:06.481824
MEAN_MOTION    = 15.83492186
ECCENTRICITY   = .0218594
INCLINATION    = 42.0620
RA_OF_ASC_NODE = 178.0185
ARG_OF_PERICENTER = 275.5638
MEAN_ANOMALY   = 82.0326

EPHEMERIS_TYPE = 0
CLASSIFICATION_TYPE = U
NORAD_CAT_ID   = 66556
ELEMENT_SET_NO = 999
REV_AT_EPOCH   = 18
BSTAR          = .18539664E-3
MEAN_MOTION_DOT = .33002E-2
MEAN_MOTION_DDOT = .7327328E-5

CCSDS_OMM_VERS = 2.0
CREATION_DATE  = 
ORIGINATOR     = 

OBJECT_NAME    = TJS-21
OBJECT_ID      = 2025-269A
CENTER_NAME    = EARTH
REF_FRAME      = TEME
TIME_SYSTEM    = UTC
MEAN_ELEMENT_THEORY = SGP/SGP4

EPOCH          = 2025-11-22T00:38:55.863744
MEAN_MOTION    = 2.00919486
ECCENTRICITY   = .7516027
INCLINATION    = 51.0640
RA_OF_ASC_NODE = 174.7014
ARG_OF_PERICENTER = 225.0831
MEAN_ANOMALY   = 41.6475

EPHEMERIS_TYPE = 0
CLASSIFICATION_TYPE = U
NORAD_CAT_ID   = 66586
ELEMENT_SET_NO = 999
REV_AT_EPOCH   = 2
BSTAR          = .52951296E-3
MEAN_MOTION_DOT = .2407E-4
MEAN_MOTION_DDOT = 0

