STARLINK-35366          
1 66512U 25263AD  25325.66672454 -.01129049  42552-3 -17213-2 0  9990
2 66512  43.0005 252.4952 0002095 258.1982 118.8515 16.03542628  2248
STARLINK-35692          
1 66513U 25263AE  25325.66672454 -.01133410  42682-3 -17651-2 0  9998
2 66513  43.0008 252.5084 0002111 259.9229 111.9650 16.03188374  2249
SENTINEL-6B             
1 66514U 25264A   25327.10268525  .00000916  00000+0  39628-2 0  9994
2 66514  66.0400 203.5092 0011538 270.5110  89.4586 12.85877842   760
SZ-21 MODULE            
1 66515U 25246C   25327.93137786  .00028971  00000+0  33497-3 0  9990
2 66515  41.4753 130.6686 0004663 134.1309 225.9914 15.61215711  1507
SHIJIAN-30A             
1 66545U 25266A   25327.89612528  .00011309  00000+0  60105-3 0  9995
2 66545  51.7997  61.1203 0012865 289.3668  70.5918 15.15666526   725
SHIJIAN-30B             
1 66546U 25266B   25327.76499389  .00011137  00000+0  59652-3 0  9994
2 66546  51.7979  61.7429 0010533 288.2508  71.7322 15.15426505   704
SHIJIAN-30C             
1 66547U 25266C   25327.76572439  .00009049  00000+0  49127-3 0  9998
2 66547  51.7989  61.7477 0011304 281.2558  78.7148 15.15174469   706
CZ-2C R/B               
1 66548U 25266D   25327.52707709  .00012075  00000+0  38366-3 0  9999
2 66548  52.0566  62.7697 0085341 107.5453 253.4879 15.29574159   677
GLOBAL-33               
1 66554U 25267A   25325.59612889  .00003575  00000+0  12516-3 0  9990
2 66554  42.0189 178.9818 0006750 273.7217  86.2848 15.30949686   165
ELECTRON KICK STAGE R/B 
1 66555U 25267B   25325.59577065  .00003645  00000+0  12531-3 0  9992
2 66555  42.0193 178.9984 0008826 283.6443  76.3411 15.31490022   164
ELECTRON R/B            
1 66556U 25267C   25325.68896391  .00330020  73273-5  18540-3 0  9993
2 66556  42.0620 178.0185 0218594 275.5638  82.0326 15.83492186   186
TJS-21                  
1 66586U 25269A   25326.02703546  .00002407  00000+0  52951-3 0  9997
2 66586  51.0640 174.7014 7516027 225.0831  41.6475  2.00919486    20
